#aV2013  9 20  0  0  0.00000000     288 DD+AD WGS84 FIT  NGA
## 1758 432000.00000000   300.00000000 56555 0.0000000000000
+   31     1  2  3  4  5  6  7  8  9 10 11 12 13 14 15 16 17
+         18 19 20 21 22 23 24 25 26 27 28 29 31 32  0  0  0
+          0  0  0  0  0  0  0  0  0  0  0  0  0  0  0  0  0
+          0  0  0  0  0  0  0  0  0  0  0  0  0  0  0  0  0
+          0  0  0  0  0  0  0  0  0  0  0  0  0  0  0  0  0
++         2  2  2  2  2  2  2  2  2  2  2  2  2  2  2  2  2
++         2  2  2  2  2  2  2  2  2  2  2  2  2  2  2  0  0
++         0  0  0  0  0  0  0  0  0  0  0  0  0  0  0  0  0
++         0  0  0  0  0  0  0  0  0  0  0  0  0  0  0  0  0
++         0  0  0  0  0  0  0  0  0  0  0  0  0  0  0  0  0
%c cc cc ccc ccc cccc cccc cccc cccc ccccc ccccc ccccc ccccc
%c cc cc ccc ccc cccc cccc cccc cccc ccccc ccccc ccccc ccccc
%f  0.0000000  0.000000000  0.00000000000  0.000000000000000
%f  0.0000000  0.000000000  0.00000000000  0.000000000000000
%i    0    0    0    0      0      0      0      0         0
%i    0    0    0    0      0      0      0      0         0
/*      NGA, ST. LOUIS,MO.                                  
/*   EPHEMERIS COMPUTED FROM  1 DAYS OF DATA
/*   EPOCHA SMOOTHER  
/* CCCCCCCCCCCCCCCCCCCCCCCCCCCCCCCCCCCCCCCCCCCCCCCCCCCCCCCCC
*  2013  9 20 18 30  0.00000000                                                 
P  1  18729.787857   6724.903401  17613.502308     76.842837                    
V  1  10510.910874  19825.127784 -18612.525995      0.040503                    
P  2 -13504.441497 -23126.484644   2003.637848    452.236506                    
V  2   3767.479027    202.414951  30808.884654      0.017645                    
P  3  16761.972666  10601.517822 -18290.425073    262.096217                    
V  3 -21484.738040   5732.102597 -16678.328739      0.050514                    
P  4  -3554.787693 -22799.970731  12616.564146      0.965669                    
V  4  11573.276756  12370.620153  25292.539111      0.006076                    
P  5  -6719.000817 -16974.794270 -19268.592173   -399.564312                    
V  5  12705.191485 -20997.839218  14238.384468      0.001555                    
P  6  10296.212981  13761.388736 -20278.814392     63.540680                    
V  6 -25622.688591   3622.574952 -10140.749467      0.188495                    
P  7  12115.476817  -8678.091445 -21915.495800    260.793588                    
V  7  14585.735680  23829.479759  -1682.612762      0.041941                    
P  8   4720.812594 -17943.215429 -18617.228122      8.570585                    
V  8  11512.649332  21159.231501 -17944.300982      0.002842                    
P  9   3463.246390 -18493.684687 -19227.093810    269.853195                    
V  9  13265.077883  19165.436758 -16629.605960      0.027346                    
P 10   7300.747263 -24328.383707  -7278.546051    -95.218770                    
V 10   7354.021077  -6204.736069  29765.067461     -0.014804                    
P 11  22852.634080  10526.611138   8414.193769   -421.497541                    
V 11   5740.997576  10796.457417 -27319.996779     -0.035639                    
P 12 -15958.945748   -323.565121  21140.747948    157.488888                    
V 12  12761.450980 -23724.390659   9447.691090      0.022137                    
P 13  23730.585527  -5714.813093 -10776.424734     78.011559                    
V 13  13269.514044   2652.166438  28014.058558     -0.037958                    
P 14  -6606.873631  14429.316471  21488.015818    215.310482                    
V 14 -26736.366734  -1520.872459  -7419.534129     -0.008925                    
P 15 -25377.271971  -3694.674995  -7445.895490   -138.052682                    
V 15   9143.582890  -3712.333017 -29169.180650     -0.018637                    
P 16   5330.143608  16725.677189 -19853.261970   -246.296578                    
V 16 -13802.273479  21089.832239  14409.122186      0.008167                    
P 17   8176.843830 -14434.787833  20913.105449    -23.280733                    
V 17  26083.002698    954.521564  -9876.556572     -0.038605                    
P 18 -16313.279592  19209.587699  -7387.876753    275.136222                    
V 18   1125.520431 -10786.239877 -29230.396700      0.020189                    
P 19  23263.622067   8444.484025 -10317.083762   -405.604654                    
V 19 -12880.655349   1372.995026 -27817.430251     -0.028174                    
P 20  17870.651694  -5434.301021  18679.479003    123.783990                    
V 20  -8357.914856  22820.736490  14572.659481      0.026129                    
P 21 -10344.474386  12195.854190 -20557.395376   -319.659661                    
V 21 -15621.123278 -22831.977463  -6030.586287     -0.019153                    
P 22  -9749.232781  24381.288555   3623.809773    185.732601                    
V 22  -5595.428087   2033.574464 -30573.198773      0.019525                    
P 23  26774.824643   -716.533280     -7.038517     46.411110                    
V 23    188.040009   2680.797473  31338.820531     -0.034718                    
P 24 -19259.544242 -10531.243784  14983.293678    -14.108585                    
V 24  -8536.076167 -17123.883736 -22948.907993     -0.007300                    
P 25 -17844.973561  13637.386799  14042.557446    149.369404                    
V 25   6574.001182 -16806.523767  24666.196684      0.040700                    
P 26 -15097.031220 -13176.584496 -18234.536636    199.595565                    
V 26  21733.201253    256.603489 -18540.850345      0.184777                    
P 27  13735.155604  12656.144255 -18899.906482    -38.846547                    
V 27 -23894.315507   2387.943559 -15761.598253     -0.044861                    
P 28  12859.135380 -23113.000834   1435.640488    294.171552                    
V 28   2453.764500    183.138081 -32323.235499      0.031590                    
P 29 -25002.240518   4843.334543  -7428.278002    472.272703                    
V 29  -9461.092805  -2626.690987  30008.054738      0.032265                    
P 31   4295.577883  23179.786059  12116.220430    326.284090                    
V 31  -9468.396797 -12047.844888  27055.847777      0.007833                    
P 32  14124.296759   6622.522714  21572.550687   -547.251559                    
V 32 -14295.792904  23168.289802   2789.021759      0.029610                    
EOF
